{
  "norad_id": 52707,
  "name": "STARLINK-4007",
  "history": [
    {
      "epoch": "2026-03-28T22:27:32.439168",
      "apogee_km": 540.7199586614161,
      "perigee_km": 538.7507171217112,
      "latitude_deg": 20.526466125625248,
      "longitude_deg": -99.46395648014732,
      "semi_major_axis_km": 6917.872337891563,
      "eccentricity": 0.00014233,
      "inclination_deg": 53.2187,
      "raan_deg": 47.6049,
      "arg_perigee_deg": 90.3326,
      "mean_anomaly_deg": 269.783,
      "mean_motion_rev_day": 15.08842634
    },
    {
      "epoch": "2026-03-29T04:49:04.747296",
      "apogee_km": 540.7064779033071,
      "perigee_km": 538.7418053390866,
      "latitude_deg": 34.35576183941669,
      "longitude_deg": -74.02805855986662,
      "semi_major_axis_km": 6917.861141621196,
      "eccentricity": 0.000142,
      "inclination_deg": 53.2185,
      "raan_deg": 46.4154,
      "arg_perigee_deg": 90.1629,
      "mean_anomaly_deg": 269.9526,
      "mean_motion_rev_day": 15.08846297
    }
  ]
}